{
  "type": "FeatureCollection",
  "generator": "overpass-ide",
  "copyright": "The data included in this document is from www.openstreetmap.org. The data is made available under ODbL.",
  "timestamp": "2023-08-14T12:59:00Z",
  "features": [
    {
      "type": "Feature",
      "properties": {
        "@id": "relation/2978650",
        "ISO3166-1": "NO",
        "ISO3166-1:alpha2": "NO",
        "ISO3166-1:alpha3": "NOR",
        "ISO3166-1:numeric": "578",
        "admin_level": "2",
        "alt_name:eo": "Norvegujo",
        "alt_name:sma": "Nøørje",
        "boundary": "administrative",
        "default_language": "no",
        "flag": "http://upload.wikimedia.org/wikipedia/commons/d/d9/Flag_of_Norway.svg",
        "int_name": "Norway",
        "is_in:continent": "Europe",
        "name": "Norge",
        "name:ace": "Norwègia",
        "name:af": "Noorweë",
        "name:als": "Norwegen",
        "name:am": "ኖርዌይ",
        "name:an": "Noruega",
        "name:ang": "Norþweg",
        "name:ar": "النرويج",
        "name:arc": "ܢܘܪܒܝܓ",
        "name:arz": "النرويج",
        "name:ast": "Noruega",
        "name:ay": "Nurweka",
        "name:az": "Norveç",
        "name:ba": "Норвегия",
        "name:bar": "Norwegn",
        "name:bat-smg": "Nuorvegėjė",
        "name:bcl": "Norwey",
        "name:be": "Нарвегія",
        "name:be-tarask": "Нарвэгія",
        "name:bg": "Норвегия",
        "name:bi": "Norway",
        "name:bm": "Norwij",
        "name:bn": "নরওয়ে",
        "name:bo": "ནོར་ཝེ།",
        "name:bpy": "নরৱে",
        "name:br": "Norvegia",
        "name:bs": "Norveška",
        "name:bxr": "Норвеги",
        "name:ca": "Noruega",
        "name:cdo": "Nò̤-ŭi",
        "name:ce": "Норвеги",
        "name:ceb": "Noruwega",
        "name:chy": "Norway",
        "name:ckb": "نۆرویژ",
        "name:co": "Nurvegia",
        "name:crh": "Norvegiya",
        "name:cs": "Norsko",
        "name:csb": "Norweskô",
        "name:cu": "Норєгъ",
        "name:cv": "Норвеги",
        "name:cy": "Norwy",
        "name:da": "Norge",
        "name:de": "Norwegen",
        "name:diq": "Norwec",
        "name:dsb": "Norwegska",
        "name:dv": "ނޯވޭ",
        "name:dz": "ནོ་ཝེ་",
        "name:ee": "Norway",
        "name:el": "Νορβηγία",
        "name:en": "Norway",
        "name:eo": "Norvegio",
        "name:es": "Noruega",
        "name:et": "Norra",
        "name:eu": "Norvegia",
        "name:ext": "Noruega",
        "name:fa": "نروژ",
        "name:fi": "Norja",
        "name:fo": "Noregur",
        "name:fr": "Norvège",
        "name:frp": "Norvèg·e",
        "name:frr": "Norweegen",
        "name:fy": "Noarwegen",
        "name:ga": "An Iorua",
        "name:gag": "Norvegiya",
        "name:gan": "挪威",
        "name:gd": "Nirribhidh",
        "name:gl": "Noruega",
        "name:gn": "Noruega",
        "name:gu": "નોર્વે",
        "name:gv": "Norlynn",
        "name:hak": "Nò-vî",
        "name:haw": "Nolewai",
        "name:he": "נורבגיה",
        "name:hi": "नॉर्वे",
        "name:hif": "Norway",
        "name:hr": "Norveška",
        "name:hsb": "Norwegska",
        "name:ht": "Nòvèj",
        "name:hu": "Norvégia",
        "name:hy": "Նորվեգիա",
        "name:ia": "Norvegia",
        "name:id": "Norwegia",
        "name:ie": "Norvegia",
        "name:ilo": "Norwéga",
        "name:io": "Norvegia",
        "name:is": "Noregur",
        "name:it": "Norvegia",
        "name:iu": "ᓄᕐᒋ",
        "name:iu-Latn": "nurgi",
        "name:ja": "ノルウェー",
        "name:jbo": "noreg",
        "name:jv": "Norwégia",
        "name:ka": "ნორვეგია",
        "name:kaa": "Norvegiya",
        "name:kbd": "Норвегэ",
        "name:kg": "Norge",
        "name:kk": "Норвегия",
        "name:kl": "Norge",
        "name:kn": "ನಾರ್ವೇ",
        "name:ko": "노르웨이",
        "name:koi": "Норвег",
        "name:krc": "Норвегия",
        "name:ku": "Norwêc",
        "name:kv": "Норвегия",
        "name:kw": "Norgagh",
        "name:ky": "Норвегия",
        "name:la": "Norvegia",
        "name:lad": "Norvejia",
        "name:lb": "Norwegen",
        "name:lez": "Норвегия",
        "name:li": "Noorwege",
        "name:lij": "Norveggia",
        "name:lmo": "Nurvegia",
        "name:ln": "Norvej",
        "name:lt": "Norvegija",
        "name:ltg": "Norvegeja",
        "name:lv": "Norvēģija",
        "name:mdf": "Норвегие",
        "name:mg": "Norvezy",
        "name:mhr": "Норвегий",
        "name:mi": "Nōwei",
        "name:mk": "Норвешка",
        "name:ml": "നോർവെ",
        "name:mn": "Норвеги",
        "name:mr": "नॉर्वे",
        "name:ms": "Norway",
        "name:mt": "Norveġja",
        "name:my": "နော်ဝေနိုင်ငံ",
        "name:myv": "Норвегия Мастор",
        "name:na": "Norwei",
        "name:nah": "Noruegia",
        "name:nan": "Lo̍k-ui-kok",
        "name:nb": "Norge",
        "name:nds": "Norwegen",
        "name:nds-nl": "Noorwegen",
        "name:ne": "नर्वे",
        "name:nl": "Noorwegen",
        "name:nn": "Noreg",
        "name:no": "Norge",
        "name:nov": "Norvegia",
        "name:nrm": "Norouague",
        "name:oc": "Norvègia",
        "name:om": "Norway",
        "name:or": "ନରୱେ",
        "name:os": "Норвеги",
        "name:pa": "ਨਾਰਵੇ",
        "name:pam": "Norwega",
        "name:pap": "Noruega",
        "name:pcd": "Norvège",
        "name:pih": "Norwaii",
        "name:pl": "Norwegia",
        "name:pms": "Norvegia",
        "name:pnb": "ناروے",
        "name:pnt": "Νορβηγία",
        "name:ps": "ناروې",
        "name:pt": "Noruega",
        "name:qu": "Nurwiga",
        "name:rm": "Norvegia",
        "name:rmy": "Norvejiya",
        "name:rn": "Noruega",
        "name:ro": "Norvegia",
        "name:roa-rup": "Norveghia",
        "name:roa-tara": "Norveggie",
        "name:ru": "Норвегия",
        "name:rw": "Noruveje",
        "name:sa": "नार्वे",
        "name:sah": "Норвегия",
        "name:sc": "Norvegia",
        "name:scn": "Norveggia",
        "name:sco": "Norawa",
        "name:se": "Norga",
        "name:sh": "Norveška",
        "name:sje": "Vuodna",
        "name:sk": "Nórsko",
        "name:sl": "Norveška",
        "name:sma": "Nöörje",
        "name:smj": "Vuodna",
        "name:smn": "Taažâ",
        "name:sms": "Taarr",
        "name:so": "Norway",
        "name:sq": "Norvegjia",
        "name:sr": "Норвешка",
        "name:ss": "INoweyi",
        "name:stq": "Norwegen",
        "name:su": "Norwégia",
        "name:sv": "Norge",
        "name:sw": "Norwei",
        "name:szl": "Norwegijŏ",
        "name:ta": "நோர்வே",
        "name:te": "నార్వే",
        "name:tet": "Noruega",
        "name:tg": "Норвегия",
        "name:th": "ประเทศนอร์เวย์",
        "name:tk": "Norwegiýa",
        "name:tl": "Noruwega",
        "name:tok": "ma Nosiki",
        "name:tpi": "Nowe",
        "name:tr": "Norveç",
        "name:ts": "Norge",
        "name:tt": "Норвегия",
        "name:tzl": "Norvexhà",
        "name:udm": "Норвегия",
        "name:ug": "نورۋېگىيە",
        "name:uk": "Норвегія",
        "name:ur": "ناروے",
        "name:uz": "Norvegiya",
        "name:vec": "Norveja",
        "name:vep": "Norvegii",
        "name:vi": "Na Uy",
        "name:vls": "Nôorweegn",
        "name:vo": "Norgän",
        "name:vro": "Norra",
        "name:wa": "Norvedje",
        "name:war": "Noruega",
        "name:wo": "Noorwees",
        "name:wuu": "挪威",
        "name:xal": "Ноорскгин Нутг",
        "name:xmf": "ნორვეგია",
        "name:yi": "נארוועגיע",
        "name:yo": "Nọ́rwèy",
        "name:yue": "挪威",
        "name:za": "Nozveih",
        "name:zea": "Noorwegen",
        "name:zh": "挪威",
        "name:zu": "INoki",
        "note": "This relation represents the full country, including its dependencies; different timezones are observed",
        "official_name": "Kongeriket Norge",
        "official_name:be": "Каралеўства Нарвегія",
        "official_name:cs": "Norské království",
        "official_name:de": "Königreich Norwegen",
        "official_name:en": "Kingdom of Norway",
        "official_name:eo": "Reĝlando Norvegio",
        "official_name:fr": "Royaume de Norvège",
        "official_name:sv": "Konungariket Norge",
        "population": "5488984",
        "population:date": "2023-01-01",
        "source:population": "wikipedia",
        "type": "boundary",
        "wikidata": "Q20",
        "wikipedia": "no:Norge"
      },
      "geometry": {
        "type": "MultiPolygon",
        "coordinates": [
          [
            [
              [
                20.0118835,
                74.4771042
              ],
              [
                19.9539364,
                74.5446742
              ],
              [
                19.940144,
                74.5528439
              ],
              [
                19.6921891,
                74.6456994
              ],
              [
                19.6684049,
                74.6520692
              ],
              [
                19.4342044,
                74.6938865
              ],
              [
                19.403116,
                74.6974726
              ],
              [
                19.1114174,
                74.7144937
              ],
              [
                19.0774534,
                74.714588
              ],
              [
                18.73947,
                74.702091
              ],
              [
                18.7067384,
                74.6997252
              ],
              [
                18.331028,
                74.6511557
              ],
              [
                18.3046999,
                74.6455319
              ],
              [
                18.1087489,
                74.5782903
              ],
              [
                18.0997326,
                74.5738284
              ],
              [
                18.03264,
                74.5325123
              ],
              [
                18.0229371,
                74.523936
              ],
              [
                17.9966339,
                74.4797895
              ],
              [
                17.9958732,
                74.470833
              ],
              [
                18.0078232,
                74.435187
              ],
              [
                18.0145163,
                74.4264104
              ],
              [
                18.0693897,
                74.3842135
              ],
              [
                18.1447346,
                74.3419198
              ],
              [
                18.4668314,
                74.214977
              ],
              [
                18.4873882,
                74.2079807
              ],
              [
                18.7174083,
                74.1577815
              ],
              [
                18.7468934,
                74.1538579
              ],
              [
                19.0321039,
                74.1355228
              ],
              [
                19.0648596,
                74.1354451
              ],
              [
                19.3809052,
                74.1562078
              ],
              [
                19.4099941,
                74.1603485
              ],
              [
                19.7542791,
                74.2340445
              ],
              [
                19.774427,
                74.2411352
              ],
              [
                19.8567675,
                74.2798529
              ],
              [
                19.8693139,
                74.2881415
              ],
              [
                19.969429,
                74.3800695
              ],
              [
                19.9744042,
                74.3849915
              ],
              [
                20.0028163,
                74.4220162
              ],
              [
                20.0069497,
                74.430906
              ],
              [
                20.0118835,
                74.4771042
              ]
            ]
          ],
          [
            [
              [
                25.3929932,
                76.2760393
              ],
              [
                25.7100554,
                76.3474834
              ],
              [
                25.7198724,
                76.351316
              ],
              [
                26.3403022,
                76.6619909
              ],
              [
                26.3447231,
                76.666352
              ],
              [
                26.3631997,
                76.7258514
              ],
              [
                26.361797,
                76.7303186
              ],
              [
                26.3054564,
                76.7869409
              ],
              [
                26.298199,
                76.791101
              ],
              [
                26.1719105,
                76.8401346
              ],
              [
                26.1594764,
                76.8436048
              ],
              [
                25.9522151,
                76.8845829
              ],
              [
                25.9353429,
                76.8869054
              ],
              [
                25.6790087,
                76.9097253
              ],
              [
                25.6596459,
                76.9106284
              ],
              [
                25.3841292,
                76.9126128
              ],
              [
                25.3645492,
                76.9119902
              ],
              [
                25.1174162,
                76.894806
              ],
              [
                25.0996971,
                76.8928301
              ],
              [
                24.8334233,
                76.8493505
              ],
              [
                24.8194329,
                76.8462011
              ],
              [
                24.6588137,
                76.7986671
              ],
              [
                24.6485376,
                76.7948531
              ],
              [
                24.2665086,
                76.6389987
              ],
              [
                24.2582436,
                76.634948
              ],
              [
                24.1243046,
                76.5621276
              ],
              [
                24.1188314,
                76.5578334
              ],
              [
                24.0623213,
                76.4977102
              ],
              [
                24.0589146,
                76.4933025
              ],
              [
                24.0433476,
                76.4539132
              ],
              [
                24.0433393,
                76.4494343
              ],
              [
                24.0713669,
                76.4007334
              ],
              [
                24.0764272,
                76.3964156
              ],
              [
                24.1616243,
                76.3497243
              ],
              [
                24.1713611,
                76.3458804
              ],
              [
                24.5086106,
                76.270667
              ],
              [
                24.5251406,
                76.2685093
              ],
              [
                24.9476816,
                76.2441585
              ],
              [
                24.9665043,
                76.2442762
              ],
              [
                25.3929932,
                76.2760393
              ]
            ]
          ],
          [
            [
              [
                30.3470905,
                80.1787317
              ],
              [
                30.2849847,
                80.1326582
              ],
              [
                30.2739606,
                80.1149841
              ],
              [
                30.2774613,
                80.0584142
              ],
              [
                30.2809196,
                80.0539765
              ],
              [
                30.3560814,
                80.0066007
              ],
              [
                30.3661818,
                80.0024806
              ],
              [
                30.5480898,
                79.9472002
              ],
              [
                30.5623594,
                79.9434797
              ],
              [
                31.0777534,
                79.8599926
              ],
              [
                31.0997314,
                79.8577409
              ],
              [
                31.7082594,
                79.8314992
              ],
              [
                31.7335899,
                79.8317105
              ],
              [
                34.0774407,
                79.9828292
              ],
              [
                34.0978637,
                79.9855548
              ],
              [
                34.281436,
                80.016866
              ],
              [
                34.2975233,
                80.0203692
              ],
              [
                34.4558598,
                80.0669519
              ],
              [
                34.532525,
                80.0981998
              ],
              [
                34.6223797,
                80.1444221
              ],
              [
                34.6277433,
                80.1488047
              ],
              [
                34.6888522,
                80.2285659
              ],
              [
                34.6889114,
                80.2330436
              ],
              [
                34.6568504,
                80.2773964
              ],
              [
                34.6503973,
                80.2817395
              ],
              [
                34.5417176,
                80.3273318
              ],
              [
                34.5285253,
                80.3312224
              ],
              [
                33.9318498,
                80.4455773
              ],
              [
                33.9118788,
                80.4485874
              ],
              [
                33.292413,
                80.5019983
              ],
              [
                33.2670724,
                80.5035984
              ],
              [
                32.7869308,
                80.5153526
              ],
              [
                32.7598312,
                80.5150362
              ],
              [
                31.8522529,
                80.4661938
              ],
              [
                31.8274593,
                80.4644116
              ],
              [
                31.3581354,
                80.4140641
              ],
              [
                31.3371471,
                80.4112666
              ],
              [
                30.6370434,
                80.291121
              ],
              [
                30.6211277,
                80.2875376
              ],
              [
                30.4355991,
                80.2284411
              ],
              [
                30.4265276,
                80.2249582
              ],
              [
                30.3470905,
                80.1787317
              ]
            ]
          ],
          [
            [
              [
                -7.4613692,
                71.2806913
              ],
              [
                -7.6331342,
                71.3303797
              ],
              [
                -7.6573813,
                71.3348513
              ],
              [
                -7.9188306,
                71.3591701
              ],
              [
                -7.9468002,
                71.3596964
              ],
              [
                -8.2248643,
                71.351387
              ],
              [
                -8.2517815,
                71.3489143
              ],
              [
                -8.578398,
                71.2978109
              ],
              [
                -8.6026637,
                71.2933756
              ],
              [
                -8.7253837,
                71.2624555
              ],
              [
                -8.7445606,
                71.2559519
              ],
              [
                -8.9563989,
                71.1625267
              ],
              [
                -8.9687673,
                71.1545058
              ],
              [
                -9.2335276,
                71.1011847
              ],
              [
                -9.2551543,
                71.0956023
              ],
              [
                -9.5164686,
                71.0092658
              ],
              [
                -9.5256902,
                71.0058106
              ],
              [
                -9.6231672,
                70.9546925
              ],
              [
                -9.6338083,
                70.946432
              ],
              [
                -9.6670361,
                70.9129499
              ],
              [
                -9.6729749,
                70.9042013
              ],
              [
                -9.6845741,
                70.8677912
              ],
              [
                -9.6846279,
                70.8628887
              ],
              [
                -9.6626536,
                70.800251
              ],
              [
                -9.6601925,
                70.7951127
              ],
              [
                -9.622484,
                70.7521541
              ],
              [
                -9.611504,
                70.7439569
              ],
              [
                -9.5406904,
                70.7058433
              ],
              [
                -9.5235508,
                70.6989014
              ],
              [
                -9.4028426,
                70.6631596
              ],
              [
                -9.3801247,
                70.6582978
              ],
              [
                -9.0332908,
                70.6265288
              ],
              [
                -9.0063191,
                70.6261416
              ],
              [
                -8.6563707,
                70.6567017
              ],
              [
                -8.6328338,
                70.6611136
              ],
              [
                -8.4520976,
                70.7006304
              ],
              [
                -8.4308016,
                70.7061732
              ],
              [
                -8.2975504,
                70.7549266
              ],
              [
                -8.2827953,
                70.7624526
              ],
              [
                -7.7800688,
                70.8259989
              ],
              [
                -7.7558095,
                70.8300922
              ],
              [
                -7.4777446,
                70.910862
              ],
              [
                -7.4632838,
                70.918473
              ],
              [
                -7.3936672,
                70.972301
              ],
              [
                -7.3873775,
                70.981025
              ],
              [
                -7.3131423,
                71.1390791
              ],
              [
                -7.3126893,
                71.1480396
              ],
              [
                -7.3442646,
                71.2096806
              ],
              [
                -7.3536489,
                71.2181166
              ],
              [
                -7.4613692,
                71.2806913
              ]
            ]
          ],
          [
            [
              [
                27.7773628,
                78.5501061
              ],
              [
                27.8163295,
                78.5614258
              ],
              [
                27.9727314,
                78.575504
              ],
              [
                28.2861215,
                78.5393998
              ],
              [
                28.3071339,
                78.5377837
              ],
              [
                28.6596021,
                78.5249431
              ],
              [
                28.6821058,
                78.5249738
              ],
              [
                29.175666,
                78.55238
              ],
              [
                29.1950386,
                78.5546748
              ],
              [
                29.3399848,
                78.5759796
              ],
              [
                30.2547035,
                78.7334563
              ],
              [
                30.9746309,
                78.8275007
              ],
              [
                30.9909677,
                78.8306679
              ],
              [
                31.3332726,
                78.9102851
              ],
              [
                31.3442586,
                78.9142332
              ],
              [
                31.4219318,
                78.9516019
              ],
              [
                31.4281182,
                78.9559202
              ],
              [
                31.4629544,
                79.0044322
              ],
              [
                31.4630435,
                79.0089103
              ],
              [
                31.4488671,
                79.0401084
              ],
              [
                31.4447323,
                79.0445169
              ],
              [
                31.3914892,
                79.083322
              ],
              [
                31.383076,
                79.0875069
              ],
              [
                31.1732813,
                79.1501969
              ],
              [
                31.1568567,
                79.1534361
              ],
              [
                30.8222892,
                79.2004408
              ],
              [
                30.8006306,
                79.2023324
              ],
              [
                30.3832399,
                79.2196952
              ],
              [
                30.3593046,
                79.2197002
              ],
              [
                28.1601592,
                79.1617208
              ],
              [
                28.1370069,
                79.1606774
              ],
              [
                27.6800824,
                79.1157244
              ],
              [
                27.3744957,
                79.0642384
              ],
              [
                26.3343397,
                79.0342037
              ],
              [
                26.3112646,
                79.0333233
              ],
              [
                25.9764225,
                79.0080885
              ],
              [
                25.9565224,
                79.0057124
              ],
              [
                25.5053098,
                78.9183852
              ],
              [
                25.4928671,
                78.9145999
              ],
              [
                25.3878309,
                78.870454
              ],
              [
                25.3807182,
                78.8661918
              ],
              [
                25.3352482,
                78.8133444
              ],
              [
                25.334823,
                78.8088671
              ],
              [
                25.3702086,
                78.7454012
              ],
              [
                25.3753788,
                78.7410384
              ],
              [
                25.535815,
                78.6511552
              ],
              [
                25.544072,
                78.6469825
              ],
              [
                25.9286071,
                78.5199461
              ],
              [
                25.942359,
                78.5164025
              ],
              [
                26.3170516,
                78.4578087
              ],
              [
                26.3374856,
                78.4559849
              ],
              [
                26.8216789,
                78.4400121
              ],
              [
                26.8439311,
                78.4404121
              ],
              [
                27.4433373,
                78.4887443
              ],
              [
                27.4507884,
                78.4896019
              ],
              [
                27.7773628,
                78.5501061
              ]
            ]
          ],
          [
            [
              [
                2.9442396,
                -54.354
              ],
              [
                2.9391214,
                -54.456
              ],
              [
                2.9399362,
                -54.46
              ],
              [
                2.9828262,
                -54.534
              ],
              [
                2.9879454,
                -54.539
              ],
              [
                3.1051469,
                -54.614
              ],
              [
                3.1122177,
                -54.617
              ],
              [
                3.2523454,
                -54.651
              ],
              [
                3.2631677,
                -54.652
              ],
              [
                3.4733766,
                -54.644
              ],
              [
                3.482472,
                -54.643
              ],
              [
                3.6134803,
                -54.61
              ],
              [
                3.6182352,
                -54.608
              ],
              [
                3.7272092,
                -54.534
              ],
              [
                3.7308109,
                -54.53
              ],
              [
                3.7789288,
                -54.429
              ],
              [
                3.7791099,
                -54.423
              ],
              [
                3.7563656,
                -54.349
              ],
              [
                3.7524297,
                -54.343
              ],
              [
                3.6777541,
                -54.269
              ],
              [
                3.6720274,
                -54.265
              ],
              [
                3.5773581,
                -54.22
              ],
              [
                3.5710038,
                -54.218
              ],
              [
                3.4310628,
                -54.19
              ],
              [
                3.4203089,
                -54.189
              ],
              [
                3.3030165,
                -54.189
              ],
              [
                3.2922625,
                -54.19
              ],
              [
                3.113582,
                -54.222
              ],
              [
                3.1075295,
                -54.224
              ],
              [
                3.0051338,
                -54.277
              ],
              [
                3.0001068,
                -54.281
              ],
              [
                2.9442396,
                -54.354
              ]
            ]
          ],
          [
            [
              [
                18.3967461,
                77.2649365
              ],
              [
                18.6707399,
                77.317591
              ],
              [
                19.7330565,
                77.3785283
              ],
              [
                20.1183419,
                77.3150192
              ],
              [
                20.1722185,
                77.3063921
              ],
              [
                20.4384757,
                77.2076796
              ],
              [
                20.5793861,
                77.1050504
              ],
              [
                20.7735859,
                76.8395404
              ],
              [
                20.7769855,
                76.835129
              ],
              [
                20.8267122,
                76.7965206
              ],
              [
                20.834305,
                76.7923915
              ],
              [
                21.0344457,
                76.7267524
              ],
              [
                21.0487244,
                76.7237025
              ],
              [
                21.3778594,
                76.6782198
              ],
              [
                21.396283,
                76.6767972
              ],
              [
                21.843639,
                76.6692562
              ],
              [
                21.8574689,
                76.669482
              ],
              [
                22.191542,
                76.6914734
              ],
              [
                22.2087138,
                76.6935772
              ],
              [
                23.1907326,
                76.9056537
              ],
              [
                23.2041233,
                76.9089479
              ],
              [
                23.6527279,
                77.041723
              ],
              [
                23.6640053,
                77.0454191
              ],
              [
                24.0920251,
                77.2107785
              ],
              [
                24.5791808,
                77.44967
              ],
              [
                25.8303366,
                77.6542929
              ],
              [
                25.8440845,
                77.6576713
              ],
              [
                26.0376913,
                77.7287164
              ],
              [
                26.0441172,
                77.7329815
              ],
              [
                26.0790679,
                77.7663692
              ],
              [
                26.0817826,
                77.7708106
              ],
              [
                26.1004522,
                77.8306402
              ],
              [
                26.0995948,
                77.835115
              ],
              [
                26.0298944,
                77.900349
              ],
              [
                26.0215438,
                77.904471
              ],
              [
                25.8454916,
                77.9602799
              ],
              [
                25.8306287,
                77.9635112
              ],
              [
                24.8667271,
                78.1005082
              ],
              [
                24.0372626,
                78.2695792
              ],
              [
                23.9477317,
                78.3110223
              ],
              [
                23.936577,
                78.3148884
              ],
              [
                22.8602191,
                78.6656315
              ],
              [
                22.598619,
                78.8224506
              ],
              [
                22.63666,
                78.8381366
              ],
              [
                24.5250819,
                79.0273502
              ],
              [
                24.5454197,
                79.0296004
              ],
              [
                26.118029,
                79.2236322
              ],
              [
                26.1353661,
                79.2267212
              ],
              [
                26.6749791,
                79.3474329
              ],
              [
                27.5440798,
                79.5736509
              ],
              [
                28.049317,
                79.6692095
              ],
              [
                28.0644882,
                79.672766
              ],
              [
                28.1335978,
                79.6914071
              ],
              [
                28.5225516,
                79.8084922
              ],
              [
                29.2382741,
                79.9672597
              ],
              [
                29.2527625,
                79.9709583
              ],
              [
                29.3879401,
                80.0191055
              ],
              [
                29.3957941,
                80.0233713
              ],
              [
                29.4461426,
                80.0762313
              ],
              [
                29.4465934,
                80.0807084
              ],
              [
                29.4370084,
                80.1075044
              ],
              [
                29.4333628,
                80.1119382
              ],
              [
                29.3706456,
                80.1664508
              ],
              [
                29.3630375,
                80.1707359
              ],
              [
                29.1532747,
                80.2368049
              ],
              [
                29.1365125,
                80.2402647
              ],
              [
                28.7203439,
                80.3016617
              ],
              [
                28.6986196,
                80.3042415
              ],
              [
                28.2869303,
                80.3368068
              ],
              [
                27.4938399,
                80.3723385
              ],
              [
                27.3694098,
                80.5029565
              ],
              [
                27.3633386,
                80.5073207
              ],
              [
                27.2170273,
                80.564927
              ],
              [
                27.2023844,
                80.5687069
              ],
              [
                25.6940678,
                80.8285768
              ],
              [
                25.6706266,
                80.8310442
              ],
              [
                25.14499,
                80.860881
              ],
              [
                25.1169491,
                80.8613354
              ],
              [
                24.5197553,
                80.8465076
              ],
              [
                23.0039903,
                80.7400181
              ],
              [
                21.071972,
                80.9921415
              ],
              [
                21.0484174,
                80.9946805
              ],
              [
                20.7285123,
                81.0188619
              ],
              [
                20.7010821,
                81.020169
              ],
              [
                20.2979034,
                81.0279019
              ],
              [
                20.2692295,
                81.0276912
              ],
              [
                19.7884331,
                81.0077996
              ],
              [
                19.762852,
                81.0057864
              ],
              [
                19.3670735,
                80.9552231
              ],
              [
                19.3493973,
                80.951713
              ],
              [
                19.2025238,
                80.913496
              ],
              [
                18.7136973,
                80.7420683
              ],
              [
                17.1615786,
                80.4639173
              ],
              [
                17.1464704,
                80.4602051
              ],
              [
                16.9206273,
                80.3879022
              ],
              [
                16.9102152,
                80.3837761
              ],
              [
                16.8000003,
                80.3153943
              ],
              [
                16.769234,
                80.2930532
              ],
              [
                16.0437275,
                80.259717
              ],
              [
                14.2399149,
                80.2323066
              ],
              [
                14.2142668,
                80.2312544
              ],
              [
                13.8724408,
                80.2064081
              ],
              [
                13.8503425,
                80.2039767
              ],
              [
                13.5658916,
                80.1590267
              ],
              [
                13.1457761,
                80.0652876
              ],
              [
                12.5745051,
                80.0491644
              ],
              [
                11.9158397,
                80.1012791
              ],
              [
                11.8904703,
                80.1022914
              ],
              [
                11.3237582,
                80.098806
              ],
              [
                11.2988835,
                80.0974846
              ],
              [
                10.6076334,
                80.0350399
              ],
              [
                10.5866733,
                80.0324158
              ],
              [
                9.6492201,
                79.8844517
              ],
              [
                9.6347306,
                79.8807681
              ],
              [
                9.5004703,
                79.8326987
              ],
              [
                9.492741,
                79.828434
              ],
              [
                9.4580374,
                79.8022978
              ],
              [
                9.45422,
                79.7978713
              ],
              [
                9.4433802,
                79.7666172
              ],
              [
                9.4441011,
                79.7621412
              ],
              [
                9.5615998,
                79.5128034
              ],
              [
                9.5646013,
                79.5083589
              ],
              [
                9.7974845,
                79.2952933
              ],
              [
                10.0064015,
                79.1430365
              ],
              [
                9.5543775,
                78.9935639
              ],
              [
                9.5433674,
                78.9896103
              ],
              [
                9.4347205,
                78.9278907
              ],
              [
                9.4311769,
                78.9234646
              ],
              [
                9.4216503,
                78.8877344
              ],
              [
                9.4228119,
                78.8832619
              ],
              [
                9.4756231,
                78.7622349
              ],
              [
                9.4787571,
                78.7577986
              ],
              [
                9.6349343,
                78.6480396
              ],
              [
                9.6420389,
                78.6437856
              ],
              [
                10.1595841,
                78.362733
              ],
              [
                10.1697684,
                78.3587542
              ],
              [
                11.1074857,
                78.0973486
              ],
              [
                11.1218519,
                78.0939917
              ],
              [
                11.3551847,
                78.0471961
              ],
              [
                11.3723761,
                78.0444816
              ],
              [
                11.6386526,
                78.0153775
              ],
              [
                11.6591271,
                78.0139747
              ],
              [
                12.5135238,
                78.0005055
              ],
              [
                12.5815474,
                77.9833596
              ],
              [
                12.5762973,
                77.8707907
              ],
              [
                12.5786998,
                77.8663409
              ],
              [
                12.6086521,
                77.8356649
              ],
              [
                12.7957425,
                77.6975593
              ],
              [
                12.8863032,
                77.5497891
              ],
              [
                12.9372334,
                77.4656348
              ],
              [
                12.9666503,
                77.3831415
              ],
              [
                12.9704662,
                77.3787413
              ],
              [
                13.3878544,
                77.1360168
              ],
              [
                13.3956446,
                77.131888
              ],
              [
                13.5073223,
                77.0895345
              ],
              [
                13.5196977,
                77.0860123
              ],
              [
                14.0223505,
                76.9610921
              ],
              [
                14.2171164,
                76.9253581
              ],
              [
                14.6578219,
                76.7618518
              ],
              [
                15.164927,
                76.6098739
              ],
              [
                15.8123665,
                76.3506837
              ],
              [
                15.8239019,
                76.3471279
              ],
              [
                16.2422004,
                76.2633774
              ],
              [
                16.2592345,
                76.2614577
              ],
              [
                16.7558092,
                76.2457451
              ],
              [
                16.7743424,
                76.2465394
              ],
              [
                17.3063477,
                76.3073556
              ],
              [
                17.321174,
                76.3101371
              ],
              [
                17.7462518,
                76.4348633
              ],
              [
                17.7569873,
                76.438567
              ],
              [
                17.8817088,
                76.5083938
              ],
              [
                17.8854179,
                76.5127883
              ],
              [
                18.1624332,
                76.9421355
              ],
              [
                18.2931376,
                77.1486246
              ],
              [
                18.3967461,
                77.2649365
              ]
            ]
          ],
          [
            [
              [
                11.7184519,
                59.6238747
              ],
              [
                11.8495002,
                59.6478874
              ],
              [
                11.8556139,
                59.6482907
              ],
              [
                11.8780441,
                59.6828359
              ],
              [
                11.8892165,
                59.6932083
              ],
              [
                11.9444639,
                59.6981049
              ],
              [
                11.9449169,
                59.6982383
              ],
              [
                11.9232032,
                59.7495932
              ],
              [
                11.9230259,
                59.7499405
              ],
              [
                11.92608,
                59.7936562
              ],
              [
                11.9260221,
                59.7939995
              ],
              [
                11.8397307,
                59.8407669
              ],
              [
                11.8397147,
                59.8407846
              ],
              [
                11.88442,
                59.8558415
              ],
              [
                11.8848319,
                59.8560496
              ],
              [
                11.8841462,
                59.8713149
              ],
              [
                11.8844184,
                59.871563
              ],
              [
                11.9850764,
                59.9006958
              ],
              [
                11.9851757,
                59.9007189
              ],
              [
                12.1553091,
                59.8867554
              ],
              [
                12.1742925,
                59.8898047
              ],
              [
                12.3198702,
                59.9583265
              ],
              [
                12.3411385,
                59.9656718
              ],
              [
                12.4248462,
                60.0265442
              ],
              [
                12.448559,
                60.0391769
              ],
              [
                12.4974678,
                60.0949519
              ],
              [
                12.5006428,
                60.0990763
              ],
              [
                12.540635,
                60.1905615
              ],
              [
                12.5418861,
                60.1933889
              ],
              [
                12.5010187,
                60.3067989
              ],
              [
                12.4987956,
                60.3236533
              ],
              [
                12.5858795,
                60.3862888
              ],
              [
                12.6060408,
                60.405896
              ],
              [
                12.6067245,
                60.5005952
              ],
              [
                12.606883,
                60.5127421
              ],
              [
                12.5331842,
                60.5870422
              ],
              [
                12.5157904,
                60.6001282
              ],
              [
                12.5130354,
                60.624596
              ],
              [
                12.5110253,
                60.6424592
              ],
              [
                12.4106145,
                60.7225535
              ],
              [
                12.3953712,
                60.7338867
              ],
              [
                12.3377321,
                60.8448828
              ],
              [
                12.3344856,
                60.8523634
              ],
              [
                12.3329501,
                60.8865738
              ],
              [
                12.3327904,
                60.8901722
              ],
              [
                12.2244659,
                61.0125355
              ],
              [
                12.2239915,
                61.013078
              ],
              [
                12.3960463,
                61.0428722
              ],
              [
                12.4476223,
                61.05073
              ],
              [
                12.6712285,
                61.0565234
              ],
              [
                12.6814023,
                61.0595362
              ],
              [
                12.7038573,
                61.132396
              ],
              [
                12.707029,
                61.1432689
              ],
              [
                12.7690518,
                61.1833225
              ],
              [
                12.7903493,
                61.1970464
              ],
              [
                12.8605445,
                61.3283961
              ],
              [
                12.8708552,
                61.3564957
              ],
              [
                12.6211946,
                61.5324908
              ],
              [
                12.5693257,
                61.5687468
              ],
              [
                12.4466196,
                61.5671208
              ],
              [
                12.4196098,
                61.5629808
              ],
              [
                12.181554,
                61.6972568
              ],
              [
                12.1376659,
                61.7238176
              ],
              [
                12.2895828,
                62.2353692
              ],
              [
                12.2993494,
                62.2674591
              ],
              [
                12.0688107,
                62.5937534
              ],
              [
                12.056144,
                62.6119192
              ],
              [
                12.1117824,
                62.7062529
              ],
              [
                12.1363738,
                62.7479256
              ],
              [
                12.0918673,
                62.8595813
              ],
              [
                12.0747065,
                62.9025664
              ],
              [
                12.1783659,
                62.9728909
              ],
              [
                12.218233,
                63.0003345
              ],
              [
                11.9982945,
                63.2431079
              ],
              [
                11.9745809,
                63.269211
              ],
              [
                12.1928705,
                63.4599683
              ],
              [
                12.2128783,
                63.4785905
              ],
              [
                12.1584312,
                63.5780355
              ],
              [
                12.1497707,
                63.593945
              ],
              [
                12.2592732,
                63.6491263
              ],
              [
                12.2994627,
                63.6719726
              ],
              [
                12.3114643,
                63.6886117
              ],
              [
                12.3305755,
                63.7150691
              ],
              [
                12.6516461,
                63.9494688
              ],
              [
                12.6835681,
                63.9742223
              ],
              [
                12.8342621,
                64.0262887
              ],
              [
                12.9266853,
                64.0579355
              ],
              [
                13.1451243,
                64.0866726
              ],
              [
                13.2111097,
                64.0953668
              ],
              [
                13.9159294,
                64.0157114
              ],
              [
                13.9675267,
                64.0079704
              ],
              [
                14.1246934,
                64.1624976
              ],
              [
                14.1571021,
                64.1950934
              ],
              [
                14.1185772,
                64.4350431
              ],
              [
                14.1138841,
                64.462483
              ],
              [
                13.9458381,
                64.4990728
              ],
              [
                13.891177,
                64.5071331
              ],
              [
                13.7004667,
                64.5659664
              ],
              [
                13.6542596,
                64.580341
              ],
              [
                13.6831189,
                64.6139503
              ],
              [
                13.7054732,
                64.6399568
              ],
              [
                13.8552702,
                64.7609885
              ],
              [
                13.873374,
                64.7757019
              ],
              [
                14.2934612,
                65.0958705
              ],
              [
                14.3259858,
                65.1189152
              ],
              [
                14.3647055,
                65.2149004
              ],
              [
                14.3787981,
                65.2476197
              ],
              [
                14.4745524,
                65.294082
              ],
              [
                14.5068542,
                65.3097171
              ],
              [
                14.4994398,
                65.4946727
              ],
              [
                14.498773,
                65.5212971
              ],
              [
                14.5298864,
                65.6502113
              ],
              [
                14.5414542,
                65.7007435
              ],
              [
                14.6005327,
                65.7794102
              ],
              [
                14.6254777,
                65.8118074
              ],
              [
                14.5287893,
                66.0955421
              ],
              [
                14.5162898,
                66.1325783
              ],
              [
                14.9514031,
                66.1499977
              ],
              [
                15.0356827,
                66.1535567
              ],
              [
                15.450511,
                66.2729744
              ],
              [
                15.4847323,
                66.2824591
              ],
              [
                15.3860074,
                66.4691371
              ],
              [
                15.3772268,
                66.4843053
              ],
              [
                15.5558147,
                66.5671868
              ],
              [
                15.6213686,
                66.5943354
              ],
              [
                15.9936394,
                66.8732282
              ],
              [
                16.0387759,
                66.9124424
              ],
              [
                16.3628087,
                67.0373084
              ],
              [
                16.3877164,
                67.0454697
              ],
              [
                16.4024782,
                67.1904178
              ],
              [
                16.4040863,
                67.2050077
              ],
              [
                16.1522687,
                67.3913029
              ],
              [
                16.0898298,
                67.4352783
              ],
              [
                16.1313876,
                67.4864843
              ],
              [
                16.1580018,
                67.5191579
              ],
              [
                16.3790789,
                67.5326313
              ],
              [
                16.4074686,
                67.5340251
              ],
              [
                16.4435853,
                67.5590411
              ],
              [
                16.4948074,
                67.5944511
              ],
              [
                16.5175872,
                67.6140001
              ],
              [
                16.5561811,
                67.6471721
              ],
              [
                16.7325427,
                67.9058074
              ],
              [
                16.7381202,
                67.9142104
              ],
              [
                17.1107287,
                68.030405
              ],
              [
                17.180497,
                68.0504374
              ],
              [
                17.2526325,
                68.1015785
              ],
              [
                17.2815245,
                68.1188146
              ],
              [
                17.5992393,
                68.052512
              ],
              [
                17.6647463,
                68.0383794
              ],
              [
                17.8484698,
                67.9844812
              ],
              [
                17.8998001,
                67.9693432
              ],
              [
                18.1390901,
                68.1871977
              ],
              [
                18.1513549,
                68.1987894
              ],
              [
                18.1076062,
                68.3741932
              ],
              [
                18.1009869,
                68.4060331
              ],
              [
                18.1227829,
                68.5186412
              ],
              [
                18.1259236,
                68.5365147
              ],
              [
                18.3619749,
                68.5747145
              ],
              [
                18.4056899,
                68.5818767
              ],
              [
                18.5525985,
                68.5327837
              ],
              [
                18.6212307,
                68.506939
              ],
              [
                18.9020738,
                68.5148073
              ],
              [
                18.9838182,
                68.5169515
              ],
              [
                19.8249326,
                68.3731613
              ],
              [
                19.921397,
                68.3560138
              ],
              [
                20.1543118,
                68.4614513
              ],
              [
                20.2266538,
                68.4908582
              ],
              [
                20.0017206,
                68.5382468
              ],
              [
                19.937504,
                68.5579418
              ],
              [
                19.9916001,
                68.5735862
              ],
              [
                20.0523006,
                68.5910675
              ],
              [
                20.1614565,
                68.6453863
              ],
              [
                20.2028967,
                68.6659234
              ],
              [
                20.3163369,
                68.7827952
              ],
              [
                20.3358732,
                68.8023144
              ],
              [
                20.309413,
                68.9131297
              ],
              [
                20.3065895,
                68.9261496
              ],
              [
                20.108386,
                69.0219178
              ],
              [
                20.0600472,
                69.0457578
              ],
              [
                20.5486365,
                69.0599735
              ],
              [
                20.5523258,
                69.0600767
              ],
              [
                20.7061843,
                69.115781
              ],
              [
                20.7173208,
                69.1197912
              ],
              [
                20.988566,
                69.0529833
              ],
              [
                21.057543,
                69.0362897
              ],
              [
                21.0841848,
                69.0716358
              ],
              [
                21.1086742,
                69.1039291
              ],
              [
                21.0556244,
                69.1220853
              ],
              [
                21.0092338,
                69.1727684
              ],
              [
                20.9875741,
                69.1919274
              ],
              [
                21.0020305,
                69.2198671
              ],
              [
                21.0033124,
                69.2223381
              ],
              [
                21.2650054,
                69.3080286
              ],
              [
                21.2788202,
                69.3118841
              ],
              [
                21.5860449,
                69.2805796
              ],
              [
                21.6270859,
                69.2765883
              ],
              [
                22.1619782,
                68.9649862
              ],
              [
                22.1757622,
                68.9563244
              ],
              [
                22.1873896,
                68.9292548
              ],
              [
                22.1918678,
                68.9187737
              ],
              [
                22.2840578,
                68.8621746
              ],
              [
                22.3407806,
                68.8272257
              ],
              [
                22.3641867,
                68.7516038
              ],
              [
                22.3745217,
                68.7166666
              ],
              [
                22.5129257,
                68.7406314
              ],
              [
                22.5353893,
                68.7445126
              ],
              [
                22.7620257,
                68.6952598
              ],
              [
                22.800824,
                68.6875481
              ],
              [
                23.0106212,
                68.6891112
              ],
              [
                23.0459522,
                68.6893436
              ],
              [
                23.1255599,
                68.6494743
              ],
              [
                23.1675822,
                68.6285189
              ],
              [
                23.389736,
                68.6809747
              ],
              [
                23.4406356,
                68.6921635
              ],
              [
                23.5895064,
                68.7007451
              ],
              [
                23.6735202,
                68.7055214
              ],
              [
                23.7538359,
                68.7857592
              ],
              [
                23.7753915,
                68.8188513
              ],
              [
                23.813853,
                68.8259493
              ],
              [
                23.8714608,
                68.8365192
              ],
              [
                23.9493651,
                68.8299988
              ],
              [
                23.9833308,
                68.8271434
              ],
              [
                24.0755916,
                68.7799668
              ],
              [
                24.1585511,
                68.7897096
              ],
              [
                24.1529623,
                68.753591
              ],
              [
                24.2221504,
                68.7393312
              ],
              [
                24.2509648,
                68.7271321
              ],
              [
                24.576058,
                68.6859783
              ],
              [
                24.6083879,
                68.6819016
              ],
              [
                24.7164179,
                68.6537647
              ],
              [
                24.7834246,
                68.6362346
              ],
              [
                24.8285484,
                68.5912514
              ],
              [
                24.8571661,
                68.5622098
              ],
              [
                24.9031222,
                68.554599
              ],
              [
                24.9031658,
                68.5545918
              ],
              [
                24.9065664,
                68.5819055
              ],
              [
                24.916926,
                68.6052632
              ],
              [
                25.06865,
                68.6198377
              ],
              [
                25.0691299,
                68.6198658
              ],
              [
                25.1161324,
                68.639463
              ],
              [
                25.1163881,
                68.6395883
              ],
              [
                25.1111029,
                68.699032
              ],
              [
                25.1107866,
                68.6993619
              ],
              [
                25.1311874,
                68.7164796
              ],
              [
                25.1313037,
                68.7168774
              ],
              [
                25.1211826,
                68.7451824
              ],
              [
                25.1210104,
                68.7456046
              ],
              [
                25.1568722,
                68.7996214
              ],
              [
                25.1571257,
                68.799893
              ],
              [
                25.3975192,
                68.8902111
              ],
              [
                25.3980007,
                68.8907989
              ],
              [
                25.4764841,
                68.9045766
              ],
              [
                25.4814112,
                68.9050631
              ],
              [
                25.5410531,
                68.8864202
              ],
              [
                25.5423794,
                68.8862956
              ],
              [
                25.6259764,
                68.8925392
              ],
              [
                25.6270699,
                68.8927706
              ],
              [
                25.653819,
                68.9056543
              ],
              [
                25.6542513,
                68.9058817
              ],
              [
                25.7227887,
                68.9893978
              ],
              [
                25.7231578,
                68.9897419
              ],
              [
                25.7736449,
                69.0128593
              ],
              [
                25.7746414,
                69.0134805
              ],
              [
                25.7244495,
                69.0795227
              ],
              [
                25.7242649,
                69.0799839
              ],
              [
                25.7314985,
                69.1052016
              ],
              [
                25.7314985,
                69.1053232
              ],
              [
                25.7202422,
                69.1094295
              ],
              [
                25.7204267,
                69.1100612
              ],
              [
                25.7436774,
                69.138231
              ],
              [
                25.7436774,
                69.1387567
              ],
              [
                25.6939225,
                69.1957144
              ],
              [
                25.6933379,
                69.1966015
              ],
              [
                25.7132345,
                69.2110923
              ],
              [
                25.713317,
                69.2114583
              ],
              [
                25.7016347,
                69.2500545
              ],
              [
                25.7016854,
                69.2504676
              ],
              [
                25.7414564,
                69.2754758
              ],
              [
                25.7422694,
                69.2762099
              ],
              [
                25.7390621,
                69.3084974
              ],
              [
                25.7377626,
                69.310581
              ],
              [
                25.759098,
                69.3398584
              ],
              [
                25.7595026,
                69.3403957
              ],
              [
                25.8165546,
                69.3595822
              ],
              [
                25.8175062,
                69.359987
              ],
              [
                25.8121185,
                69.3752109
              ],
              [
                25.812556,
                69.37592
              ],
              [
                25.8462009,
                69.3929115
              ],
              [
                25.8465163,
                69.393376
              ],
              [
                25.79396,
                69.4202524
              ],
              [
                25.7930149,
                69.42093
              ],
              [
                25.8329673,
                69.4662335
              ],
              [
                25.8337583,
                69.4673613
              ],
              [
                25.8636987,
                69.4748108
              ],
              [
                25.8646171,
                69.4758111
              ],
              [
                25.8472995,
                69.491926
              ],
              [
                25.8464535,
                69.4925554
              ],
              [
                25.8756535,
                69.5281351
              ],
              [
                25.8762701,
                69.5285834
              ],
              [
                25.8412169,
                69.5503143
              ],
              [
                25.8414362,
                69.5509915
              ],
              [
                25.9362991,
                69.5721063
              ],
              [
                25.9375821,
                69.5726004
              ],
              [
                25.9753391,
                69.6094598
              ],
              [
                25.9760403,
                69.610225
              ],
              [
                25.9546566,
                69.6465867
              ],
              [
                25.9533618,
                69.6475305
              ],
              [
                25.895592,
                69.6683077
              ],
              [
                25.8974757,
                69.6696841
              ],
              [
                26.0059808,
                69.7224764
              ],
              [
                26.0071395,
                69.7228555
              ],
              [
                26.1295971,
                69.7364321
              ],
              [
                26.1357557,
                69.7386798
              ],
              [
                26.2458477,
                69.7943907
              ],
              [
                26.2467337,
                69.7950041
              ],
              [
                26.2426236,
                69.8162123
              ],
              [
                26.2435971,
                69.8166814
              ],
              [
                26.3803904,
                69.8528262
              ],
              [
                26.3835888,
                69.8541585
              ],
              [
                26.4174625,
                69.8880451
              ],
              [
                26.4182128,
                69.889093
              ],
              [
                26.4074079,
                69.9010208
              ],
              [
                26.4075357,
                69.901482
              ],
              [
                26.4543736,
                69.9182783
              ],
              [
                26.4550912,
                69.9186992
              ],
              [
                26.4653759,
                69.9398049
              ],
              [
                26.4666296,
                69.9401961
              ],
              [
                26.6760757,
                69.96462
              ],
              [
                26.6786878,
                69.9647723
              ],
              [
                26.7154702,
                69.9452682
              ],
              [
                26.7180703,
                69.9449865
              ],
              [
                26.8407548,
                69.9603025
              ],
              [
                26.8512893,
                69.9601348
              ],
              [
                26.8782968,
                69.9334149
              ],
              [
                26.881797,
                69.9327589
              ],
              [
                26.9558265,
                69.9397955
              ],
              [
                26.9586312,
                69.939643
              ],
              [
                27.030418,
                69.9112393
              ],
              [
                27.0316691,
                69.9107708
              ],
              [
                27.0939738,
                69.9168532
              ],
              [
                27.0974124,
                69.9170917
              ],
              [
                27.2916719,
                69.9522287
              ],
              [
                27.2949645,
                69.9530098
              ],
              [
                27.3054871,
                69.9580776
              ],
              [
                27.3051447,
                69.9590332
              ],
              [
                27.2779009,
                69.9739502
              ],
              [
                27.2768413,
                69.9745591
              ],
              [
                27.2843944,
                69.9816707
              ],
              [
                27.2931492,
                69.9851962
              ],
              [
                27.4229997,
                70.0180164
              ],
              [
                27.4307096,
                70.0194461
              ],
              [
                27.523342,
                70.0227768
              ],
              [
                27.5260529,
                70.0234818
              ],
              [
                27.5514062,
                70.0557729
              ],
              [
                27.5534312,
                70.058144
              ],
              [
                27.614207,
                70.074151
              ],
              [
                27.6203096,
                70.0747469
              ],
              [
                27.7408225,
                70.0641192
              ],
              [
                27.744113,
                70.0642875
              ],
              [
                27.9556346,
                70.0922939
              ],
              [
                27.9593778,
                70.0921111
              ],
              [
                27.9824139,
                70.0282116
              ],
              [
                27.9842853,
                70.0139707
              ],
              [
                28.1070893,
                69.9489225
              ],
              [
                28.160713,
                69.9209937
              ],
              [
                28.2964969,
                69.8914824
              ],
              [
                28.3452694,
                69.8808318
              ],
              [
                28.3384067,
                69.8661497
              ],
              [
                28.3304762,
                69.8491926
              ],
              [
                28.3840435,
                69.8268292
              ],
              [
                28.4042254,
                69.818425
              ],
              [
                29.1087786,
                69.6993016
              ],
              [
                29.1339095,
                69.6953404
              ],
              [
                29.1581929,
                69.6580471
              ],
              [
                29.1705369,
                69.6390414
              ],
              [
                29.3158194,
                69.4984955
              ],
              [
                29.3364956,
                69.4783227
              ],
              [
                29.266414,
                69.4301355
              ],
              [
                29.2193395,
                69.3976362
              ],
              [
                28.8910496,
                69.2507376
              ],
              [
                28.831539,
                69.2243617
              ],
              [
                28.8102054,
                69.1228451
              ],
              [
                28.80543,
                69.1111558
              ],
              [
                28.8353705,
                69.0901436
              ],
              [
                28.8545771,
                69.0766388
              ],
              [
                29.0294774,
                69.0187815
              ],
              [
                29.0414375,
                69.0108297
              ],
              [
                29.1597115,
                69.0670629
              ],
              [
                29.242137,
                69.1130186
              ],
              [
                29.2310226,
                69.1215352
              ],
              [
                29.2310095,
                69.1216852
              ],
              [
                29.2573855,
                69.1537584
              ],
              [
                29.2576141,
                69.1540812
              ],
              [
                29.2486408,
                69.1613187
              ],
              [
                29.2487203,
                69.1615253
              ],
              [
                29.28646,
                69.1691718
              ],
              [
                29.2864934,
                69.1692013
              ],
              [
                29.3139062,
                69.2310042
              ],
              [
                29.3139861,
                69.2312317
              ],
              [
                29.2771509,
                69.250375
              ],
              [
                29.276971,
                69.250761
              ],
              [
                29.2897587,
                69.2969602
              ],
              [
                29.2904654,
                69.2972815
              ],
              [
                29.3963059,
                69.3236711
              ],
              [
                29.3965182,
                69.3236938
              ],
              [
                29.5233553,
                69.3291908
              ],
              [
                29.5238959,
                69.3291776
              ],
              [
                29.5685102,
                69.3175018
              ],
              [
                29.5695943,
                69.3177021
              ],
              [
                29.6929127,
                69.3625853
              ],
              [
                29.6950684,
                69.3634539
              ],
              [
                29.7235931,
                69.3894166
              ],
              [
                29.7240514,
                69.3895434
              ],
              [
                29.8593757,
                69.4239544
              ],
              [
                29.860394,
                69.4240237
              ],
              [
                29.9672312,
                69.4059977
              ],
              [
                29.9679075,
                69.4061259
              ],
              [
                30.1142895,
                69.4675909
              ],
              [
                30.11491,
                69.4679284
              ],
              [
                30.1204935,
                69.514128
              ],
              [
                30.1211636,
                69.5151341
              ],
              [
                30.1730923,
                69.5344727
              ],
              [
                30.1741007,
                69.5352056
              ],
              [
                30.1883236,
                69.5678595
              ],
              [
                30.1883026,
                69.5684641
              ],
              [
                30.1380788,
                69.6425026
              ],
              [
                30.137826,
                69.6435197
              ],
              [
                30.0912854,
                69.6428379
              ],
              [
                30.0852915,
                69.6580972
              ],
              [
                30.1847719,
                69.6619475
              ],
              [
                30.2240291,
                69.6531205
              ],
              [
                30.5075595,
                69.5479566
              ],
              [
                30.5159812,
                69.5404206
              ],
              [
                30.8166841,
                69.528741
              ],
              [
                30.8167646,
                69.5287393
              ],
              [
                30.9388793,
                69.5609987
              ],
              [
                30.9389429,
                69.5610273
              ],
              [
                30.9542485,
                69.632275
              ],
              [
                30.9542528,
                69.6324096
              ],
              [
                30.9233763,
                69.6697388
              ],
              [
                30.9233797,
                69.6698289
              ],
              [
                30.9444485,
                69.6831125
              ],
              [
                30.9444402,
                69.6831846
              ],
              [
                30.8737734,
                69.714857
              ],
              [
                30.8736595,
                69.7149353
              ],
              [
                30.8906766,
                69.7198217
              ],
              [
                30.8907729,
                69.7199351
              ],
              [
                30.8906167,
                69.737213
              ],
              [
                30.8905984,
                69.7372657
              ],
              [
                30.8215363,
                69.791287
              ],
              [
                30.8176414,
                69.7948444
              ],
              [
                30.8890761,
                69.8411444
              ],
              [
                31.104328,
                69.9793028
              ],
              [
                31.5560003,
                70.1352595
              ],
              [
                31.585589,
                70.143751
              ],
              [
                31.6059955,
                70.1871927
              ],
              [
                31.6356491,
                70.2373235
              ],
              [
                31.7328112,
                70.3265231
              ],
              [
                31.7404155,
                70.3351117
              ],
              [
                31.7609502,
                70.3792968
              ],
              [
                31.7614911,
                70.3882574
              ],
              [
                31.7274875,
                70.4548466
              ],
              [
                31.7179977,
                70.4632271
              ],
              [
                31.6041979,
                70.5257959
              ],
              [
                31.5865969,
                70.5325669
              ],
              [
                30.609411,
                70.8265726
              ],
              [
                30.5884827,
                70.8323185
              ],
              [
                30.0520631,
                70.9401427
              ],
              [
                29.5661421,
                71.0236079
              ],
              [
                28.4160102,
                71.2864016
              ],
              [
                28.3897039,
                71.2893993
              ],
              [
                27.7455561,
                71.3312042
              ],
              [
                27.7177815,
                71.332282
              ],
              [
                25.710744,
                71.3845663
              ],
              [
                25.6827065,
                71.3848787
              ],
              [
                24.9197957,
                71.3356767
              ],
              [
                24.6292529,
                71.314085
              ],
              [
                23.8014866,
                71.2887054
              ],
              [
                23.7749128,
                71.2859619
              ],
              [
                22.2983382,
                70.9876804
              ],
              [
                21.7155286,
                70.8552837
              ],
              [
                19.6915787,
                70.6016583
              ],
              [
                18.8471744,
                70.4871981
              ],
              [
                18.2932204,
                70.3850324
              ],
              [
                18.2721249,
                70.3795473
              ],
              [
                17.8052487,
                70.1684167
              ],
              [
                17.4519478,
                69.9930418
              ],
              [
                17.1600465,
                69.8115436
              ],
              [
                17.0555145,
                69.7450431
              ],
              [
                15.7627805,
                69.5127113
              ],
              [
                15.7407536,
                69.508151
              ],
              [
                14.7681538,
                69.2445532
              ],
              [
                14.7505073,
                69.2381373
              ],
              [
                13.8815845,
                68.8679677
              ],
              [
                13.8667743,
                68.8607714
              ],
              [
                13.8070643,
                68.821587
              ],
              [
                13.721632,
                68.7462148
              ],
              [
                13.3880082,
                68.5409843
              ],
              [
                13.2639808,
                68.4635555
              ],
              [
                12.8208681,
                68.3431498
              ],
              [
                12.802131,
                68.3374534
              ],
              [
                12.6356454,
                68.2660278
              ],
              [
                12.6213966,
                68.2587844
              ],
              [
                12.3058938,
                68.0313084
              ],
              [
                12.2979794,
                68.0251759
              ],
              [
                12.1666037,
                67.8700778
              ],
              [
                12.1284737,
                67.8227978
              ],
              [
                11.5070007,
                67.6308628
              ],
              [
                11.502219,
                67.629145
              ],
              [
                11.3663842,
                67.5464216
              ],
              [
                11.3597095,
                67.5378271
              ],
              [
                11.3101198,
                67.4642064
              ],
              [
                11.3067843,
                67.4553326
              ],
              [
                11.3127549,
                67.3928692
              ],
              [
                11.3177617,
                67.3841131
              ],
              [
                11.6675307,
                67.0155966
              ],
              [
                11.8588347,
                66.8153715
              ],
              [
                11.5958283,
                66.6918397
              ],
              [
                11.5849602,
                66.6839746
              ],
              [
                11.0932687,
                66.1997399
              ],
              [
                11.091391,
                66.1978141
              ],
              [
                10.9538864,
                65.9714176
              ],
              [
                10.7986826,
                65.7018105
              ],
              [
                10.1487663,
                65.0517451
              ],
              [
                10.0893697,
                64.9927215
              ],
              [
                10.0013758,
                64.8785846
              ],
              [
                9.9969565,
                64.869815
              ],
              [
                9.3252402,
                64.5472941
              ],
              [
                8.9404759,
                64.3577122
              ],
              [
                8.1207253,
                64.0471859
              ],
              [
                8.1160694,
                64.0449471
              ],
              [
                7.5268514,
                63.6949774
              ],
              [
                7.4621593,
                63.6557318
              ],
              [
                6.8605032,
                63.2733152
              ],
              [
                6.8389292,
                63.2597974
              ],
              [
                5.9784284,
                62.967742
              ],
              [
                5.9636608,
                62.961801
              ],
              [
                4.9490909,
                62.471934
              ],
              [
                4.9383762,
                62.4663765
              ],
              [
                4.6754525,
                62.2787366
              ],
              [
                4.6670319,
                62.270668
              ],
              [
                4.4247494,
                62.0131568
              ],
              [
                4.2832972,
                61.8496338
              ],
              [
                4.1748173,
                61.7229104
              ],
              [
                4.1684617,
                61.7144599
              ],
              [
                4.1490298,
                61.6706489
              ],
              [
                4.1476632,
                61.6616997
              ],
              [
                4.0909598,
                61.0114719
              ],
              [
                4.0930137,
                61.0025539
              ],
              [
                4.4729713,
                60.3109755
              ],
              [
                4.4939355,
                60.272216
              ],
              [
                4.6608795,
                59.7188373
              ],
              [
                4.6720742,
                59.6649577
              ],
              [
                4.4751775,
                59.3536174
              ],
              [
                4.4646882,
                59.3309284
              ],
              [
                4.4542745,
                59.2869658
              ],
              [
                4.4545071,
                59.2779907
              ],
              [
                4.4704806,
                59.2210775
              ],
              [
                4.4753551,
                59.2124564
              ],
              [
                4.5610875,
                59.1362091
              ],
              [
                4.5731573,
                59.1297216
              ],
              [
                4.7993022,
                59.0385766
              ],
              [
                4.8951639,
                59.0006408
              ],
              [
                4.9591183,
                58.9559574
              ],
              [
                5.0059355,
                58.9231488
              ],
              [
                5.0718957,
                58.7821535
              ],
              [
                5.1122392,
                58.7009896
              ],
              [
                5.177238,
                58.6029663
              ],
              [
                5.1798292,
                58.5992566
              ],
              [
                5.3520908,
                58.4359467
              ],
              [
                5.362522,
                58.4288293
              ],
              [
                5.6011768,
                58.2846405
              ],
              [
                5.6104569,
                58.2797904
              ],
              [
                6.4722148,
                57.8863422
              ],
              [
                6.4869656,
                57.8819982
              ],
              [
                6.8632908,
                57.7989819
              ],
              [
                6.8790162,
                57.7958029
              ],
              [
                7.1306303,
                57.7658264
              ],
              [
                7.1471873,
                57.7643055
              ],
              [
                7.5574232,
                57.7590052
              ],
              [
                7.5721809,
                57.759011
              ],
              [
                7.7566879,
                57.7760423
              ],
              [
                7.7696762,
                57.7783285
              ],
              [
                8.4799827,
                57.9494597
              ],
              [
                8.4931715,
                57.9550667
              ],
              [
                8.9188738,
                58.1629007
              ],
              [
                8.9309452,
                58.1692174
              ],
              [
                9.6688766,
                58.6033109
              ],
              [
                9.7883582,
                58.6722787
              ],
              [
                9.988044,
                58.7252882
              ],
              [
                10.0738334,
                58.7479193
              ],
              [
                10.2634087,
                58.7738853
              ],
              [
                10.2709199,
                58.7750264
              ],
              [
                10.5761627,
                58.7618275
              ],
              [
                10.593096,
                58.760962
              ],
              [
                10.618608,
                58.834036
              ],
              [
                10.6389238,
                58.8922758
              ],
              [
                10.9832927,
                58.9604662
              ],
              [
                11.0665166,
                58.977411
              ],
              [
                11.1265622,
                59.0317047
              ],
              [
                11.1535062,
                59.0792568
              ],
              [
                11.3262417,
                59.1117629
              ],
              [
                11.339912,
                59.1149793
              ],
              [
                11.4426067,
                59.0135472
              ],
              [
                11.4645982,
                58.9911521
              ],
              [
                11.4564464,
                58.9861705
              ],
              [
                11.4538742,
                58.9854673
              ],
              [
                11.4557378,
                58.889242
              ],
              [
                11.4558126,
                58.8891832
              ],
              [
                11.5370007,
                58.8773929
              ],
              [
                11.5374131,
                58.8774183
              ],
              [
                11.5533822,
                58.8987279
              ],
              [
                11.5533985,
                58.8989319
              ],
              [
                11.5724072,
                58.8878248
              ],
              [
                11.5724948,
                58.8878254
              ],
              [
                11.6368865,
                58.9079497
              ],
              [
                11.652003,
                58.9062334
              ],
              [
                11.6580439,
                58.9314803
              ],
              [
                11.658171,
                58.9317617
              ],
              [
                11.688823,
                58.9563556
              ],
              [
                11.6890826,
                58.9568451
              ],
              [
                11.6838484,
                58.9897058
              ],
              [
                11.6839138,
                58.9899989
              ],
              [
                11.7053767,
                59.0153755
              ],
              [
                11.7105158,
                59.0336756
              ],
              [
                11.7757212,
                59.0869487
              ],
              [
                11.7762262,
                59.087994
              ],
              [
                11.7641024,
                59.1145637
              ],
              [
                11.7636244,
                59.1145374
              ],
              [
                11.7829935,
                59.2066434
              ],
              [
                11.7832574,
                59.2072502
              ],
              [
                11.8296573,
                59.2409895
              ],
              [
                11.8297963,
                59.2416072
              ],
              [
                11.8164228,
                59.343628
              ],
              [
                11.8162451,
                59.3447445
              ],
              [
                11.7915927,
                59.374413
              ],
              [
                11.7798653,
                59.3864596
              ],
              [
                11.7597151,
                59.4588745
              ],
              [
                11.7532071,
                59.4793693
              ],
              [
                11.6983768,
                59.5743152
              ],
              [
                11.6911282,
                59.5895487
              ],
              [
                11.7184519,
                59.6238747
              ]
            ]
          ]
        ]
      },
      "id": "relation/2978650"
    },
    {
      "type": "Feature",
      "properties": {
        "@id": "node/20981158",
        "@relations": [
          {
            "role": "admin_centre",
            "rel": 2978650,
            "reltags": {
              "ISO3166-1": "NO",
              "ISO3166-1:alpha2": "NO",
              "ISO3166-1:alpha3": "NOR",
              "ISO3166-1:numeric": "578",
              "admin_level": "2",
              "alt_name:eo": "Norvegujo",
              "alt_name:sma": "Nøørje",
              "boundary": "administrative",
              "default_language": "no",
              "flag": "http://upload.wikimedia.org/wikipedia/commons/d/d9/Flag_of_Norway.svg",
              "int_name": "Norway",
              "is_in:continent": "Europe",
              "name": "Norge",
              "name:ace": "Norwègia",
              "name:af": "Noorweë",
              "name:als": "Norwegen",
              "name:am": "ኖርዌይ",
              "name:an": "Noruega",
              "name:ang": "Norþweg",
              "name:ar": "النرويج",
              "name:arc": "ܢܘܪܒܝܓ",
              "name:arz": "النرويج",
              "name:ast": "Noruega",
              "name:ay": "Nurweka",
              "name:az": "Norveç",
              "name:ba": "Норвегия",
              "name:bar": "Norwegn",
              "name:bat-smg": "Nuorvegėjė",
              "name:bcl": "Norwey",
              "name:be": "Нарвегія",
              "name:be-tarask": "Нарвэгія",
              "name:bg": "Норвегия",
              "name:bi": "Norway",
              "name:bm": "Norwij",
              "name:bn": "নরওয়ে",
              "name:bo": "ནོར་ཝེ།",
              "name:bpy": "নরৱে",
              "name:br": "Norvegia",
              "name:bs": "Norveška",
              "name:bxr": "Норвеги",
              "name:ca": "Noruega",
              "name:cdo": "Nò̤-ŭi",
              "name:ce": "Норвеги",
              "name:ceb": "Noruwega",
              "name:chy": "Norway",
              "name:ckb": "نۆرویژ",
              "name:co": "Nurvegia",
              "name:crh": "Norvegiya",
              "name:cs": "Norsko",
              "name:csb": "Norweskô",
              "name:cu": "Норєгъ",
              "name:cv": "Норвеги",
              "name:cy": "Norwy",
              "name:da": "Norge",
              "name:de": "Norwegen",
              "name:diq": "Norwec",
              "name:dsb": "Norwegska",
              "name:dv": "ނޯވޭ",
              "name:dz": "ནོ་ཝེ་",
              "name:ee": "Norway",
              "name:el": "Νορβηγία",
              "name:en": "Norway",
              "name:eo": "Norvegio",
              "name:es": "Noruega",
              "name:et": "Norra",
              "name:eu": "Norvegia",
              "name:ext": "Noruega",
              "name:fa": "نروژ",
              "name:fi": "Norja",
              "name:fo": "Noregur",
              "name:fr": "Norvège",
              "name:frp": "Norvèg·e",
              "name:frr": "Norweegen",
              "name:fy": "Noarwegen",
              "name:ga": "An Iorua",
              "name:gag": "Norvegiya",
              "name:gan": "挪威",
              "name:gd": "Nirribhidh",
              "name:gl": "Noruega",
              "name:gn": "Noruega",
              "name:gu": "નોર્વે",
              "name:gv": "Norlynn",
              "name:hak": "Nò-vî",
              "name:haw": "Nolewai",
              "name:he": "נורבגיה",
              "name:hi": "नॉर्वे",
              "name:hif": "Norway",
              "name:hr": "Norveška",
              "name:hsb": "Norwegska",
              "name:ht": "Nòvèj",
              "name:hu": "Norvégia",
              "name:hy": "Նորվեգիա",
              "name:ia": "Norvegia",
              "name:id": "Norwegia",
              "name:ie": "Norvegia",
              "name:ilo": "Norwéga",
              "name:io": "Norvegia",
              "name:is": "Noregur",
              "name:it": "Norvegia",
              "name:iu": "ᓄᕐᒋ",
              "name:iu-Latn": "nurgi",
              "name:ja": "ノルウェー",
              "name:jbo": "noreg",
              "name:jv": "Norwégia",
              "name:ka": "ნორვეგია",
              "name:kaa": "Norvegiya",
              "name:kbd": "Норвегэ",
              "name:kg": "Norge",
              "name:kk": "Норвегия",
              "name:kl": "Norge",
              "name:kn": "ನಾರ್ವೇ",
              "name:ko": "노르웨이",
              "name:koi": "Норвег",
              "name:krc": "Норвегия",
              "name:ku": "Norwêc",
              "name:kv": "Норвегия",
              "name:kw": "Norgagh",
              "name:ky": "Норвегия",
              "name:la": "Norvegia",
              "name:lad": "Norvejia",
              "name:lb": "Norwegen",
              "name:lez": "Норвегия",
              "name:li": "Noorwege",
              "name:lij": "Norveggia",
              "name:lmo": "Nurvegia",
              "name:ln": "Norvej",
              "name:lt": "Norvegija",
              "name:ltg": "Norvegeja",
              "name:lv": "Norvēģija",
              "name:mdf": "Норвегие",
              "name:mg": "Norvezy",
              "name:mhr": "Норвегий",
              "name:mi": "Nōwei",
              "name:mk": "Норвешка",
              "name:ml": "നോർവെ",
              "name:mn": "Норвеги",
              "name:mr": "नॉर्वे",
              "name:ms": "Norway",
              "name:mt": "Norveġja",
              "name:my": "နော်ဝေနိုင်ငံ",
              "name:myv": "Норвегия Мастор",
              "name:na": "Norwei",
              "name:nah": "Noruegia",
              "name:nan": "Lo̍k-ui-kok",
              "name:nb": "Norge",
              "name:nds": "Norwegen",
              "name:nds-nl": "Noorwegen",
              "name:ne": "नर्वे",
              "name:nl": "Noorwegen",
              "name:nn": "Noreg",
              "name:no": "Norge",
              "name:nov": "Norvegia",
              "name:nrm": "Norouague",
              "name:oc": "Norvègia",
              "name:om": "Norway",
              "name:or": "ନରୱେ",
              "name:os": "Норвеги",
              "name:pa": "ਨਾਰਵੇ",
              "name:pam": "Norwega",
              "name:pap": "Noruega",
              "name:pcd": "Norvège",
              "name:pih": "Norwaii",
              "name:pl": "Norwegia",
              "name:pms": "Norvegia",
              "name:pnb": "ناروے",
              "name:pnt": "Νορβηγία",
              "name:ps": "ناروې",
              "name:pt": "Noruega",
              "name:qu": "Nurwiga",
              "name:rm": "Norvegia",
              "name:rmy": "Norvejiya",
              "name:rn": "Noruega",
              "name:ro": "Norvegia",
              "name:roa-rup": "Norveghia",
              "name:roa-tara": "Norveggie",
              "name:ru": "Норвегия",
              "name:rw": "Noruveje",
              "name:sa": "नार्वे",
              "name:sah": "Норвегия",
              "name:sc": "Norvegia",
              "name:scn": "Norveggia",
              "name:sco": "Norawa",
              "name:se": "Norga",
              "name:sh": "Norveška",
              "name:sje": "Vuodna",
              "name:sk": "Nórsko",
              "name:sl": "Norveška",
              "name:sma": "Nöörje",
              "name:smj": "Vuodna",
              "name:smn": "Taažâ",
              "name:sms": "Taarr",
              "name:so": "Norway",
              "name:sq": "Norvegjia",
              "name:sr": "Норвешка",
              "name:ss": "INoweyi",
              "name:stq": "Norwegen",
              "name:su": "Norwégia",
              "name:sv": "Norge",
              "name:sw": "Norwei",
              "name:szl": "Norwegijŏ",
              "name:ta": "நோர்வே",
              "name:te": "నార్వే",
              "name:tet": "Noruega",
              "name:tg": "Норвегия",
              "name:th": "ประเทศนอร์เวย์",
              "name:tk": "Norwegiýa",
              "name:tl": "Noruwega",
              "name:tok": "ma Nosiki",
              "name:tpi": "Nowe",
              "name:tr": "Norveç",
              "name:ts": "Norge",
              "name:tt": "Норвегия",
              "name:tzl": "Norvexhà",
              "name:udm": "Норвегия",
              "name:ug": "نورۋېگىيە",
              "name:uk": "Норвегія",
              "name:ur": "ناروے",
              "name:uz": "Norvegiya",
              "name:vec": "Norveja",
              "name:vep": "Norvegii",
              "name:vi": "Na Uy",
              "name:vls": "Nôorweegn",
              "name:vo": "Norgän",
              "name:vro": "Norra",
              "name:wa": "Norvedje",
              "name:war": "Noruega",
              "name:wo": "Noorwees",
              "name:wuu": "挪威",
              "name:xal": "Ноорскгин Нутг",
              "name:xmf": "ნორვეგია",
              "name:yi": "נארוועגיע",
              "name:yo": "Nọ́rwèy",
              "name:yue": "挪威",
              "name:za": "Nozveih",
              "name:zea": "Noorwegen",
              "name:zh": "挪威",
              "name:zu": "INoki",
              "note": "This relation represents the full country, including its dependencies; different timezones are observed",
              "official_name": "Kongeriket Norge",
              "official_name:be": "Каралеўства Нарвегія",
              "official_name:cs": "Norské království",
              "official_name:de": "Königreich Norwegen",
              "official_name:en": "Kingdom of Norway",
              "official_name:eo": "Reĝlando Norvegio",
              "official_name:fr": "Royaume de Norvège",
              "official_name:sv": "Konungariket Norge",
              "population": "5488984",
              "population:date": "2023-01-01",
              "source:population": "wikipedia",
              "type": "boundary",
              "wikidata": "Q20",
              "wikipedia": "no:Norge"
            }
          }
        ]
      },
      "geometry": {
        "type": "Point",
        "coordinates": [
          10.7389701,
          59.9133301
        ]
      },
      "id": "node/20981158"
    },
    {
      "type": "Feature",
      "properties": {
        "@id": "node/424297198",
        "@relations": [
          {
            "role": "label",
            "rel": 2978650,
            "reltags": {
              "ISO3166-1": "NO",
              "ISO3166-1:alpha2": "NO",
              "ISO3166-1:alpha3": "NOR",
              "ISO3166-1:numeric": "578",
              "admin_level": "2",
              "alt_name:eo": "Norvegujo",
              "alt_name:sma": "Nøørje",
              "boundary": "administrative",
              "default_language": "no",
              "flag": "http://upload.wikimedia.org/wikipedia/commons/d/d9/Flag_of_Norway.svg",
              "int_name": "Norway",
              "is_in:continent": "Europe",
              "name": "Norge",
              "name:ace": "Norwègia",
              "name:af": "Noorweë",
              "name:als": "Norwegen",
              "name:am": "ኖርዌይ",
              "name:an": "Noruega",
              "name:ang": "Norþweg",
              "name:ar": "النرويج",
              "name:arc": "ܢܘܪܒܝܓ",
              "name:arz": "النرويج",
              "name:ast": "Noruega",
              "name:ay": "Nurweka",
              "name:az": "Norveç",
              "name:ba": "Норвегия",
              "name:bar": "Norwegn",
              "name:bat-smg": "Nuorvegėjė",
              "name:bcl": "Norwey",
              "name:be": "Нарвегія",
              "name:be-tarask": "Нарвэгія",
              "name:bg": "Норвегия",
              "name:bi": "Norway",
              "name:bm": "Norwij",
              "name:bn": "নরওয়ে",
              "name:bo": "ནོར་ཝེ།",
              "name:bpy": "নরৱে",
              "name:br": "Norvegia",
              "name:bs": "Norveška",
              "name:bxr": "Норвеги",
              "name:ca": "Noruega",
              "name:cdo": "Nò̤-ŭi",
              "name:ce": "Норвеги",
              "name:ceb": "Noruwega",
              "name:chy": "Norway",
              "name:ckb": "نۆرویژ",
              "name:co": "Nurvegia",
              "name:crh": "Norvegiya",
              "name:cs": "Norsko",
              "name:csb": "Norweskô",
              "name:cu": "Норєгъ",
              "name:cv": "Норвеги",
              "name:cy": "Norwy",
              "name:da": "Norge",
              "name:de": "Norwegen",
              "name:diq": "Norwec",
              "name:dsb": "Norwegska",
              "name:dv": "ނޯވޭ",
              "name:dz": "ནོ་ཝེ་",
              "name:ee": "Norway",
              "name:el": "Νορβηγία",
              "name:en": "Norway",
              "name:eo": "Norvegio",
              "name:es": "Noruega",
              "name:et": "Norra",
              "name:eu": "Norvegia",
              "name:ext": "Noruega",
              "name:fa": "نروژ",
              "name:fi": "Norja",
              "name:fo": "Noregur",
              "name:fr": "Norvège",
              "name:frp": "Norvèg·e",
              "name:frr": "Norweegen",
              "name:fy": "Noarwegen",
              "name:ga": "An Iorua",
              "name:gag": "Norvegiya",
              "name:gan": "挪威",
              "name:gd": "Nirribhidh",
              "name:gl": "Noruega",
              "name:gn": "Noruega",
              "name:gu": "નોર્વે",
              "name:gv": "Norlynn",
              "name:hak": "Nò-vî",
              "name:haw": "Nolewai",
              "name:he": "נורבגיה",
              "name:hi": "नॉर्वे",
              "name:hif": "Norway",
              "name:hr": "Norveška",
              "name:hsb": "Norwegska",
              "name:ht": "Nòvèj",
              "name:hu": "Norvégia",
              "name:hy": "Նորվեգիա",
              "name:ia": "Norvegia",
              "name:id": "Norwegia",
              "name:ie": "Norvegia",
              "name:ilo": "Norwéga",
              "name:io": "Norvegia",
              "name:is": "Noregur",
              "name:it": "Norvegia",
              "name:iu": "ᓄᕐᒋ",
              "name:iu-Latn": "nurgi",
              "name:ja": "ノルウェー",
              "name:jbo": "noreg",
              "name:jv": "Norwégia",
              "name:ka": "ნორვეგია",
              "name:kaa": "Norvegiya",
              "name:kbd": "Норвегэ",
              "name:kg": "Norge",
              "name:kk": "Норвегия",
              "name:kl": "Norge",
              "name:kn": "ನಾರ್ವೇ",
              "name:ko": "노르웨이",
              "name:koi": "Норвег",
              "name:krc": "Норвегия",
              "name:ku": "Norwêc",
              "name:kv": "Норвегия",
              "name:kw": "Norgagh",
              "name:ky": "Норвегия",
              "name:la": "Norvegia",
              "name:lad": "Norvejia",
              "name:lb": "Norwegen",
              "name:lez": "Норвегия",
              "name:li": "Noorwege",
              "name:lij": "Norveggia",
              "name:lmo": "Nurvegia",
              "name:ln": "Norvej",
              "name:lt": "Norvegija",
              "name:ltg": "Norvegeja",
              "name:lv": "Norvēģija",
              "name:mdf": "Норвегие",
              "name:mg": "Norvezy",
              "name:mhr": "Норвегий",
              "name:mi": "Nōwei",
              "name:mk": "Норвешка",
              "name:ml": "നോർവെ",
              "name:mn": "Норвеги",
              "name:mr": "नॉर्वे",
              "name:ms": "Norway",
              "name:mt": "Norveġja",
              "name:my": "နော်ဝေနိုင်ငံ",
              "name:myv": "Норвегия Мастор",
              "name:na": "Norwei",
              "name:nah": "Noruegia",
              "name:nan": "Lo̍k-ui-kok",
              "name:nb": "Norge",
              "name:nds": "Norwegen",
              "name:nds-nl": "Noorwegen",
              "name:ne": "नर्वे",
              "name:nl": "Noorwegen",
              "name:nn": "Noreg",
              "name:no": "Norge",
              "name:nov": "Norvegia",
              "name:nrm": "Norouague",
              "name:oc": "Norvègia",
              "name:om": "Norway",
              "name:or": "ନରୱେ",
              "name:os": "Норвеги",
              "name:pa": "ਨਾਰਵੇ",
              "name:pam": "Norwega",
              "name:pap": "Noruega",
              "name:pcd": "Norvège",
              "name:pih": "Norwaii",
              "name:pl": "Norwegia",
              "name:pms": "Norvegia",
              "name:pnb": "ناروے",
              "name:pnt": "Νορβηγία",
              "name:ps": "ناروې",
              "name:pt": "Noruega",
              "name:qu": "Nurwiga",
              "name:rm": "Norvegia",
              "name:rmy": "Norvejiya",
              "name:rn": "Noruega",
              "name:ro": "Norvegia",
              "name:roa-rup": "Norveghia",
              "name:roa-tara": "Norveggie",
              "name:ru": "Норвегия",
              "name:rw": "Noruveje",
              "name:sa": "नार्वे",
              "name:sah": "Норвегия",
              "name:sc": "Norvegia",
              "name:scn": "Norveggia",
              "name:sco": "Norawa",
              "name:se": "Norga",
              "name:sh": "Norveška",
              "name:sje": "Vuodna",
              "name:sk": "Nórsko",
              "name:sl": "Norveška",
              "name:sma": "Nöörje",
              "name:smj": "Vuodna",
              "name:smn": "Taažâ",
              "name:sms": "Taarr",
              "name:so": "Norway",
              "name:sq": "Norvegjia",
              "name:sr": "Норвешка",
              "name:ss": "INoweyi",
              "name:stq": "Norwegen",
              "name:su": "Norwégia",
              "name:sv": "Norge",
              "name:sw": "Norwei",
              "name:szl": "Norwegijŏ",
              "name:ta": "நோர்வே",
              "name:te": "నార్వే",
              "name:tet": "Noruega",
              "name:tg": "Норвегия",
              "name:th": "ประเทศนอร์เวย์",
              "name:tk": "Norwegiýa",
              "name:tl": "Noruwega",
              "name:tok": "ma Nosiki",
              "name:tpi": "Nowe",
              "name:tr": "Norveç",
              "name:ts": "Norge",
              "name:tt": "Норвегия",
              "name:tzl": "Norvexhà",
              "name:udm": "Норвегия",
              "name:ug": "نورۋېگىيە",
              "name:uk": "Норвегія",
              "name:ur": "ناروے",
              "name:uz": "Norvegiya",
              "name:vec": "Norveja",
              "name:vep": "Norvegii",
              "name:vi": "Na Uy",
              "name:vls": "Nôorweegn",
              "name:vo": "Norgän",
              "name:vro": "Norra",
              "name:wa": "Norvedje",
              "name:war": "Noruega",
              "name:wo": "Noorwees",
              "name:wuu": "挪威",
              "name:xal": "Ноорскгин Нутг",
              "name:xmf": "ნორვეგია",
              "name:yi": "נארוועגיע",
              "name:yo": "Nọ́rwèy",
              "name:yue": "挪威",
              "name:za": "Nozveih",
              "name:zea": "Noorwegen",
              "name:zh": "挪威",
              "name:zu": "INoki",
              "note": "This relation represents the full country, including its dependencies; different timezones are observed",
              "official_name": "Kongeriket Norge",
              "official_name:be": "Каралеўства Нарвегія",
              "official_name:cs": "Norské království",
              "official_name:de": "Königreich Norwegen",
              "official_name:en": "Kingdom of Norway",
              "official_name:eo": "Reĝlando Norvegio",
              "official_name:fr": "Royaume de Norvège",
              "official_name:sv": "Konungariket Norge",
              "population": "5488984",
              "population:date": "2023-01-01",
              "source:population": "wikipedia",
              "type": "boundary",
              "wikidata": "Q20",
              "wikipedia": "no:Norge"
            }
          }
        ]
      },
      "geometry": {
        "type": "Point",
        "coordinates": [
          8.7876653,
          61.1529386
        ]
      },
      "id": "node/424297198"
    }
  ]
}
